[{"OBJECT_NAME":"LEMUR-2-PETERG","OBJECT_ID":"2017-042S","EPOCH":"2026-03-09T11:34:35.656032","MEAN_MOTION":15.29611459,"ECCENTRICITY":0.00037,"INCLINATION":97.398,"RA_OF_ASC_NODE":253.6596,"ARG_OF_PERICENTER":341.6938,"MEAN_ANOMALY":18.4169,"EPHEMERIS_TYPE":0,"CLASSIFICATION_TYPE":"U","NORAD_CAT_ID":42841,"ELEMENT_SET_NO":999,"REV_AT_EPOCH":47317,"BSTAR":0.00081076471,"MEAN_MOTION_DOT":0.0002324,"MEAN_MOTION_DDOT":0},{"OBJECT_NAME":"STARLINK-34103","OBJECT_ID":"2025-099L","EPOCH":"2026-03-09T08:13:34.325760","MEAN_MOTION":15.27593572,"ECCENTRICITY":0.00025578,"INCLINATION":43.0025,"RA_OF_ASC_NODE":178.1479,"ARG_OF_PERICENTER":281.8543,"MEAN_ANOMALY":78.2021,"EPHEMERIS_TYPE":0,"CLASSIFICATION_TYPE":"U","NORAD_CAT_ID":63962,"ELEMENT_SET_NO":999,"REV_AT_EPOCH":4728,"BSTAR":0.0014155491,"MEAN_MOTION_DOT":0.00038914,"MEAN_MOTION_DDOT":0}]
