LEMUR-2-PETERG          
1 42841U 17042S   26068.48235713  .00023240  00000+0  81076-3 0  9993
2 42841  97.3980 253.6596 0003700 341.6938  18.4169 15.29611459473171
STARLINK-34103          
1 63962U 25099L   26068.34275840  .00038914  00000+0  14155-2 0  9998
2 63962  43.0025 178.1479 0002557 281.8543  78.2021 15.27593572 47286
